{"type": "FeatureCollection", "features": [ {"type": "Feature", "properties": {"norad_id": 32289, "name": "YAOGAN-3", "group": "resource", "lat": 0.6998186705104715, "lon": 21.930348584773476, "alt_km": 600.9925369894536, "timestamp": "2025-12-21T11:31:42.498448+00:00", "meta": {"OBJECT_NAME": "YAOGAN-3", "OBJECT_ID": "2007-055A", "EPOCH": "2025-12-21T05:04:40.539648", "MEAN_MOTION": 14.89892881, "ECCENTRICITY": 0.0001111, "INCLINATION": 97.8354, "RA_OF_ASC_NODE": 21.7604, "ARG_OF_PERICENTER": 75.2167, "MEAN_ANOMALY": 284.9174, "EPHEMERIS_TYPE": 0, "CLASSIFICATION_TYPE": "U", "NORAD_CAT_ID": 32289, "ELEMENT_SET_NO": 999, "REV_AT_EPOCH": 97935, "BSTAR": 0.00014027, "MEAN_MOTION_DOT": 1.293e-05, "MEAN_MOTION_DDOT": 0}, "tle": {"line1": "1 32289U 07055A   25355.21158032  .00001293  00000+0  14027-3 0  9994", "line2": "2 32289  97.8354  21.7604 0001111  75.2167 284.9174 14.89892881979350"}}, "geometry": {"type": "Point", "coordinates": [21.930348584773476, 0.6998186705104715]}}, {"type": "Feature", "properties": {"norad_id": 32376, "name": "COSMO-SKYMED 2", "group": "resource", "lat": 36.645616211047276, "lon": 170.758431808571, "alt_km": 619.3169104694907, "timestamp": "2025-12-21T11:31:42.498459+00:00", "meta": {"OBJECT_NAME": "COSMO-SKYMED 2", "OBJECT_ID": "2007-059A", "EPOCH": "2025-12-21T04:52:51.014208", "MEAN_MOTION": 14.82151984, "ECCENTRICITY": 0.0001343, "INCLINATION": 97.8804, "RA_OF_ASC_NODE": 176.3997, "ARG_OF_PERICENTER": 83.213, "MEAN_ANOMALY": 276.9236, "EPHEMERIS_TYPE": 0, "CLASSIFICATION_TYPE": "U", "NORAD_CAT_ID": 32376, "ELEMENT_SET_NO": 999, "REV_AT_EPOCH": 97563, "BSTAR": 5.1511e-05, "MEAN_MOTION_DOT": 3.58e-06, "MEAN_MOTION_DDOT": 0}, "tle": {"line1": "1 32376U 07059A   25355.20336822  .00000358  00000+0  51511-4 0  9990", "line2": "2 32376  97.8804 176.3997 0001343  83.2130 276.9236 14.82151984975637"}}, "geometry": {"type": "Point", "coordinates": [170.758431808571, 36.645616211047276]}}, {"type": "Feature", "properties": {"norad_id": 32382, "name": "RADARSAT-2", "group": "resource", "lat": 32.21269072173484, "lon": -174.59889256696673, "alt_km": 789.4864027508656, "timestamp": "2025-12-21T11:31:42.498470+00:00", "meta": {"OBJECT_NAME": "RADARSAT-2", "OBJECT_ID": "2007-061A", "EPOCH": "2025-12-21T04:07:29.657856", "MEAN_MOTION": 14.29983843, "ECCENTRICITY": 0.0001136, "INCLINATION": 98.579, "RA_OF_ASC_NODE": 359.6395, "ARG_OF_PERICENTER": 85.3205, "MEAN_ANOMALY": 274.8107, "EPHEMERIS_TYPE": 0, "CLASSIFICATION_TYPE": "U", "NORAD_CAT_ID": 32382, "ELEMENT_SET_NO": 999, "REV_AT_EPOCH": 94051, "BSTAR": 1.7118e-05, "MEAN_MOTION_DOT": 1e-08, "MEAN_MOTION_DDOT": 0}, "tle": {"line1": "1 32382U 07061A   25355.17187104  .00000001  00000+0  17118-4 0  9993", "line2": "2 32382  98.5790 359.6395 0001136  85.3205 274.8107 14.29983843940511"}}, "geometry": {"type": "Point", "coordinates": [-174.59889256696673, 32.21269072173484]}}, {"type": "Feature", "properties": {"norad_id": 32783, "name": "CARTOSAT-2A", "group": "resource", "lat": 74.10636415127212, "lon": 16.285473996263704, "alt_km": 626.9110878607962, "timestamp": "2025-12-21T11:31:42.498482+00:00", "meta": {"OBJECT_NAME": "CARTOSAT-2A", "OBJECT_ID": "2008-021A", "EPOCH": "2025-12-21T04:41:27.305088", "MEAN_MOTION": 14.78951434, "ECCENTRICITY": 0.0011174, "INCLINATION": 97.7922, "RA_OF_ASC_NODE": 44.7551, "ARG_OF_PERICENTER": 337.077, "MEAN_ANOMALY": 22.9941, "EPHEMERIS_TYPE": 0, "CLASSIFICATION_TYPE": "U", "NORAD_CAT_ID": 32783, "ELEMENT_SET_NO": 999, "REV_AT_EPOCH": 95249, "BSTAR": 9.1793e-05, "MEAN_MOTION_DOT": 6.27e-06, "MEAN_MOTION_DDOT": 0}, "tle": {"line1": "1 32783U 08021A   25355.19545492  .00000627  00000+0  91793-4 0  9990", "line2": "2 32783  97.7922  44.7551 0011174 337.0770  22.9941 14.78951434952490"}}, "geometry": {"type": "Point", "coordinates": [16.285473996263704, 74.10636415127212]}}, {"type": "Feature", "properties": {"norad_id": 33320, "name": "HUANJING 1A (HJ-1A)", "group": "resource", "lat": 78.74256034490568, "lon": -59.08558365993309, "alt_km": 607.65590715502, "timestamp": "2025-12-21T11:31:42.498493+00:00", "meta": {"OBJECT_NAME": "HUANJING 1A (HJ-1A)", "OBJECT_ID": "2008-041A", "EPOCH": "2025-12-21T04:41:13.310880", "MEAN_MOTION": 14.83419138, "ECCENTRICITY": 0.0019525, "INCLINATION": 97.6537, "RA_OF_ASC_NODE": 343.1408, "ARG_OF_PERICENTER": 7.6994, "MEAN_ANOMALY": 352.4516, "EPHEMERIS_TYPE": 0, "CLASSIFICATION_TYPE": "U", "NORAD_CAT_ID": 33320, "ELEMENT_SET_NO": 999, "REV_AT_EPOCH": 93201, "BSTAR": 0.0001827, "MEAN_MOTION_DOT": 1.453e-05, "MEAN_MOTION_DDOT": 0}, "tle": {"line1": "1 33320U 08041A   25355.19529295  .00001453  00000+0  18270-3 0  9999", "line2": "2 33320  97.6537 343.1408 0019525   7.6994 352.4516 14.83419138932013"}}, "geometry": {"type": "Point", "coordinates": [-59.08558365993309, 78.74256034490568]}}, {"type": "Feature", "properties": {"norad_id": 33321, "name": "HUANJING 1B (HJ-1B)", "group": "resource", "lat": -73.95626039992783, "lon": 14.91124099232065, "alt_km": 642.48001308946, "timestamp": "2025-12-21T11:31:42.498504+00:00", "meta": {"OBJECT_NAME": "HUANJING 1B (HJ-1B)", "OBJECT_ID": "2008-041B", "EPOCH": "2025-12-21T05:23:30.923808", "MEAN_MOTION": 14.8284398, "ECCENTRICITY": 0.0038013, "INCLINATION": 97.6396, "RA_OF_ASC_NODE": 346.8437, "ARG_OF_PERICENTER": 48.9835, "MEAN_ANOMALY": 311.4656, "EPHEMERIS_TYPE": 0, "CLASSIFICATION_TYPE": "U", "NORAD_CAT_ID": 33321, "ELEMENT_SET_NO": 999, "REV_AT_EPOCH": 93203, "BSTAR": 0.00019046, "MEAN_MOTION_DOT": 1.509e-05, "MEAN_MOTION_DDOT": 0}, "tle": {"line1": "1 33321U 08041B   25355.22466347  .00001509  00000+0  19046-3 0  9996", "line2": "2 33321  97.6396 346.8437 0038013  48.9835 311.4656 14.82843980932031"}}, "geometry": {"type": "Point", "coordinates": [14.91124099232065, -73.95626039992783]}}, {"type": "Feature", "properties": {"norad_id": 33331, "name": "GEOEYE 1", "group": "resource", "lat": 61.296811459291895, "lon": 51.52830388508625, "alt_km": 674.0376036946018, "timestamp": "2025-12-21T11:31:42.498515+00:00", "meta": {"OBJECT_NAME": "GEOEYE 1", "OBJECT_ID": "2008-042A", "EPOCH": "2025-12-21T04:41:11.289120", "MEAN_MOTION": 14.647105, "ECCENTRICITY": 0.0002841, "INCLINATION": 98.1242, "RA_OF_ASC_NODE": 66.3692, "ARG_OF_PERICENTER": 247.8958, "MEAN_ANOMALY": 112.1943, "EPHEMERIS_TYPE": 0, "CLASSIFICATION_TYPE": "U", "NORAD_CAT_ID": 33331, "ELEMENT_SET_NO": 999, "REV_AT_EPOCH": 92409, "BSTAR": 8.352e-05, "MEAN_MOTION_DOT": 3.97e-06, "MEAN_MOTION_DDOT": 0}, "tle": {"line1": "1 33331U 08042A   25355.19526955  .00000397  00000+0  83520-4 0  9999", "line2": "2 33331  98.1242  66.3692 0002841 247.8958 112.1943 14.64710500924094"}}, "geometry": {"type": "Point", "coordinates": [51.52830388508625, 61.296811459291895]}}, {"type": "Feature", "properties": {"norad_id": 33396, "name": "THEOS", "group": "resource", "lat": -42.62516761082562, "lon": 61.30530098262722, "alt_km": 832.2510130901092, "timestamp": "2025-12-21T11:31:42.498526+00:00", "meta": {"OBJECT_NAME": "THEOS", "OBJECT_ID": "2008-049A", "EPOCH": "2025-12-21T04:58:03.857376", "MEAN_MOTION": 14.20098575, "ECCENTRICITY": 0.0001193, "INCLINATION": 98.5861, "RA_OF_ASC_NODE": 53.0471, "ARG_OF_PERICENTER": 96.2931, "MEAN_ANOMALY": 263.8382, "EPHEMERIS_TYPE": 0, "CLASSIFICATION_TYPE": "U", "NORAD_CAT_ID": 33396, "ELEMENT_SET_NO": 999, "REV_AT_EPOCH": 89270, "BSTAR": 7.7785e-05, "MEAN_MOTION_DOT": 1.23e-06, "MEAN_MOTION_DDOT": 0}, "tle": {"line1": "1 33396U 08049A   25355.20698909  .00000123  00000+0  77785-4 0  9991", "line2": "2 33396  98.5861  53.0471 0001193  96.2931 263.8382 14.20098575892706"}}, "geometry": {"type": "Point", "coordinates": [61.30530098262722, -42.62516761082562]}}, {"type": "Feature", "properties": {"norad_id": 33412, "name": "COSMO-SKYMED 3", "group": "resource", "lat": -24.04912618189845, "lon": 22.491142407583435, "alt_km": 550.1615475502576, "timestamp": "2025-12-21T11:31:42.498537+00:00", "meta": {"OBJECT_NAME": "COSMO-SKYMED 3", "OBJECT_ID": "2008-054A", "EPOCH": "2025-12-21T04:14:40.651296", "MEAN_MOTION": 15.05423997, "ECCENTRICITY": 0.0016948, "INCLINATION": 97.8463, "RA_OF_ASC_NODE": 205.7108, "ARG_OF_PERICENTER": 143.6996, "MEAN_ANOMALY": 216.5383, "EPHEMERIS_TYPE": 0, "CLASSIFICATION_TYPE": "U", "NORAD_CAT_ID": 33412, "ELEMENT_SET_NO": 999, "REV_AT_EPOCH": 93014, "BSTAR": 0.00013871, "MEAN_MOTION_DOT": 1.931e-05, "MEAN_MOTION_DDOT": 0}, "tle": {"line1": "1 33412U 08054A   25355.17685939  .00001931  00000+0  13871-3 0  9994", "line2": "2 33412  97.8463 205.7108 0016948 143.6996 216.5383 15.05423997930141"}}, "geometry": {"type": "Point", "coordinates": [22.491142407583435, -24.04912618189845]}}, {"type": "Feature", "properties": {"norad_id": 33446, "name": "YAOGAN-4", "group": "resource", "lat": -11.903883623613343, "lon": 103.81256621458746, "alt_km": 626.9715706043489, "timestamp": "2025-12-21T11:31:42.498548+00:00", "meta": {"OBJECT_NAME": "YAOGAN-4", "OBJECT_ID": "2008-061A", "EPOCH": "2025-12-20T07:07:49.061568", "MEAN_MOTION": 14.82702731, "ECCENTRICITY": 0.00131175, "INCLINATION": 97.9192, "RA_OF_ASC_NODE": 284.3224, "ARG_OF_PERICENTER": 296.7402, "MEAN_ANOMALY": 63.2469, "EPHEMERIS_TYPE": 0, "CLASSIFICATION_TYPE": "U", "NORAD_CAT_ID": 33446, "ELEMENT_SET_NO": 999, "REV_AT_EPOCH": 91915, "BSTAR": 0.000123707, "MEAN_MOTION_DOT": 9.46e-06, "MEAN_MOTION_DDOT": 0}, "tle": {"line1": "1 33446U 08061A   25354.29709562  .00000946  00000+0  12371-3 0  9999", "line2": "2 33446  97.9192 284.3224 0013117 296.7402  63.2469 14.82702731919157"}}, "geometry": {"type": "Point", "coordinates": [103.81256621458746, -11.903883623613343]}}]}